STARLINK-33949          
1 64105U 25110K   26038.67168087  .00026266  00000+0  89560-3 0  9999
2 64105  53.1604 166.4045 0001041  82.7983 277.3137 15.30208131 41285
STARLINK-33970          
1 64106U 25110L   26038.66218369  .00023237  00000+0  79422-3 0  9999
2 64106  53.1599 166.3434 0001132  97.7886 262.3243 15.30200543 41280
STARLINK-33912          
1 64107U 25110M   26038.65798451  .00029516  00000+0  10045-2 0  9995
2 64107  53.1586 166.3172 0001293  58.2298 301.8829 15.30206804 41288
STARLINK-34156          
1 64108U 25110N   26038.64846722  .00022355  00000+0  76489-3 0  9999
2 64108  53.1573 166.2605 0001327  70.3349 289.7795 15.30188663 41283
STARLINK-34124          
1 64109U 25110P   26038.65479764  .00021424  00000+0  73316-3 0  9991
2 64109  53.1583 166.3004 0001413  60.3613 299.7529 15.30208828 41280
STARLINK-34145          
1 64110U 25110Q   26038.66534908  .00027331  00000+0  93140-3 0  9996
2 64110  53.1594 166.3628 0001196  77.1593 282.9542 15.30203472 41286
STARLINK-34148          
1 64111U 25110R   26038.64530065  .00056596  00000+0  19076-2 0  9995
2 64111  53.1578 166.2373 0001070  75.1060 285.0059 15.30213938 41288
STARLINK-34136          
1 64112U 25110S   26038.65163035  .00017119  00000+0  58871-3 0  9991
2 64112  53.1576 166.2810 0001146  94.7385 265.3746 15.30202853 41282
STARLINK-33839          
1 64113U 25110T   26038.63896991  .00044115  00000+0  14916-2 0  9991
2 64113  53.1570 166.1960 0001060  62.6760 297.4348 15.30225540 41280
STARLINK-34064          
1 64114U 25110U   26038.65902111  .00021851  00000+0  74728-3 0  9996
2 64114  53.1596 166.3157 0001152  79.9727 280.1404 15.30217923 41283
STARLINK-34067          
1 64115U 25110V   26038.63262995  .00022241  00000+0  76016-3 0  9990
2 64115  53.1577 166.1594 0001254  94.5631 265.5513 15.30227939 41282
STARLINK-34080          
1 64116U 25110W   26038.57048501  .00033337  00000+0  11323-2 0  9996
2 64116  53.1571 166.4797 0000836  73.4335 286.6757 15.30209390 41260
STARLINK-34122          
1 64117U 25110X   26038.62946847  .00037269  00000+0  12638-2 0  9991
2 64117  53.1577 166.1376 0001086  77.3037 282.8085 15.30209529 41285
STARLINK-33964          
1 64118U 25110Y   26038.64213348  .00040467  00000+0  13713-2 0  9996
2 64118  53.1568 166.2174 0001125  81.6604 278.4524 15.30191774 41286
STARLINK-34160          
1 64119U 25110Z   26038.62630280  .00037337  00000+0  12662-2 0  9997
2 64119  53.1584 166.1164 0001173  75.1340 284.9790 15.30205260 41284
STARLINK-34151          
1 64120U 25110AA  26038.87817600  .00029880  00000+0  10164-2 0  9998
2 64120  53.1604 165.5548 0001337  85.4592 274.6561 15.30215138 41314
STARLINK-34189          
1 64121U 25110AB  26038.61375288  .00039227  00000+0  13290-2 0  9991
2 64121  53.1610 166.7447 0001152  91.1367 268.9766 15.30213275 41270
STARLINK-33991          
1 64122U 25110AC  26038.62208138  .00031481  00000+0  10704-2 0  9993
2 64122  53.1586 166.0895 0001420  85.2417 274.8745 15.30203334 41279
STARLINK-11727 [DTC]    
1 64123U 25111A   26038.60291932  .00168733  00000+0  12889-2 0  9994
2 64123  42.9991 155.5269 0001561 275.0135  85.0554 15.70895909 41905
STARLINK-11724 [DTC]    
1 64124U 25111B   26038.44389707  .00281387  00000+0  21186-2 0  9996
2 64124  42.9994 156.0381 0001717 262.9769  97.0904 15.70888965 41884
STARLINK-11725 [DTC]    
1 64125U 25111C   26038.77775121  .00318735  00000+0  23928-2 0  9996
2 64125  42.9993 154.2506 0003004 355.0927   4.9911 15.70845003 41931
STARLINK-11717 [DTC]    
1 64126U 25111D   26038.66668981 -.00130641  00000+0 -10285-2 0  9992
2 64126  42.9999 154.9943 0001495 276.5675 144.6685 15.70889816  5894
STARLINK-11721 [DTC]    
1 64127U 25111E   26038.74586765  .00341897  00000+0  25274-2 0  9990
2 64127  43.0004 153.9934 0007619 237.8331 122.1798 15.71121335 41933
STARLINK-11722 [DTC]    
1 64128U 25111F   26038.38562155  .00367323  00000+0  27121-2 0  9993
2 64128  42.9977 156.4604 0003040 199.2408 160.8345 15.71096439 41824
STARLINK-11679 [DTC]    
1 64129U 25111G   26038.49686316  .00574653  00000+0  41737-2 0  9997
2 64129  42.9990 155.5708 0001888 295.2936  64.7736 15.70874181 41896
STARLINK-11735 [DTC]    
1 64130U 25111H   26038.32735010  .00267327  00000+0  20081-2 0  9993
2 64130  42.9968 156.8851 0000700 249.7456 110.3336 15.70987082 41719
STARLINK-11720 [DTC]    
1 64131U 25111J   26038.62933604  .00257025  00000+0  19384-2 0  9994
2 64131  43.0001 154.8434 0003125 302.8315  57.2252 15.70922166 41868
STARLINK-11718 [DTC]    
1 64132U 25111K   26038.34950025  .00346370  00000+0  25630-2 0  9993
2 64132  42.9980 157.0653 0001993 173.7483 186.3410 15.71107161 41910
STARLINK-11716 [DTC]    
1 64133U 25111L   26038.47042433  .00144321  00000+0  10996-2 0  9994
2 64133  42.9973 156.2506 0001871 326.5120  33.5629 15.71038954 41932
STARLINK-11714 [DTC]    
1 64134U 25111M   26038.35907749  .00299598  00000+0  22369-2 0  9996
2 64134  42.9972 156.2448 0001597 239.8102 120.2607 15.71033617 41872
