OBJECT_NAME,OBJECT_ID,EPOCH,MEAN_MOTION,ECCENTRICITY,INCLINATION,RA_OF_ASC_NODE,ARG_OF_PERICENTER,MEAN_ANOMALY,EPHEMERIS_TYPE,CLASSIFICATION_TYPE,NORAD_CAT_ID,ELEMENT_SET_NO,REV_AT_EPOCH,BSTAR,MEAN_MOTION_DOT,MEAN_MOTION_DDOT
STARLINK-33949,2025-110K,2026-02-07T16:07:13.227168,15.30208131,.00010413,53.1604,166.4045,82.7983,277.3137,0,U,64105,999,4128,.89560283E-3,.26266E-3,0
STARLINK-33970,2025-110L,2026-02-07T15:53:32.670816,15.30200543,.00011328,53.1599,166.3434,97.7886,262.3243,0,U,64106,999,4128,.79422253E-3,.23237E-3,0
STARLINK-33912,2025-110M,2026-02-07T15:47:29.861664,15.30206804,.00012932,53.1586,166.3172,58.2298,301.8829,0,U,64107,999,4128,.10045029E-2,.29516E-3,0
STARLINK-34156,2025-110N,2026-02-07T15:33:47.567808,15.30188663,.0001327,53.1573,166.2605,70.3349,289.7795,0,U,64108,999,4128,.76489E-3,.22355E-3,0
STARLINK-34124,2025-110P,2026-02-07T15:42:54.516096,15.30208828,.0001413,53.1583,166.3004,60.3613,299.7529,0,U,64109,999,4128,.73316E-3,.21424E-3,0
STARLINK-34145,2025-110Q,2026-02-07T15:58:06.160512,15.30203472,.0001196,53.1594,166.3628,77.1593,282.9542,0,U,64110,999,4128,.93139665E-3,.27331E-3,0
STARLINK-34148,2025-110R,2026-02-07T15:29:13.976160,15.30213938,.000107,53.1578,166.2373,75.1060,285.0059,0,U,64111,999,4128,.19076E-2,.56596E-3,0
STARLINK-34136,2025-110S,2026-02-07T15:38:20.862240,15.30202853,.0001146,53.1576,166.2810,94.7385,265.3746,0,U,64112,999,4128,.58871E-3,.17119E-3,0
STARLINK-33839,2025-110T,2026-02-07T15:20:07.000224,15.30225540,.000106,53.1570,166.1960,62.6760,297.4348,0,U,64113,999,4128,.14916E-2,.44115E-3,0
STARLINK-34064,2025-110U,2026-02-07T15:48:59.423904,15.30217923,.00011526,53.1596,166.3157,79.9727,280.1404,0,U,64114,999,4128,.74728446E-3,.21851E-3,0
STARLINK-34067,2025-110V,2026-02-07T15:10:59.227680,15.30227939,.0001254,53.1577,166.1594,94.5631,265.5513,0,U,64115,999,4128,.76016E-3,.22241E-3,0
STARLINK-34080,2025-110W,2026-02-07T13:41:29.904864,15.30209390,.0000836,53.1571,166.4797,73.4335,286.6757,0,U,64116,999,4126,.11323E-2,.33337E-3,0
STARLINK-34122,2025-110X,2026-02-07T15:06:26.075808,15.30209529,.0001086,53.1577,166.1376,77.3037,282.8085,0,U,64117,999,4128,.12638E-2,.37269E-3,0
STARLINK-33964,2025-110Y,2026-02-07T15:24:40.332672,15.30191774,.0001125,53.1568,166.2174,81.6604,278.4524,0,U,64118,999,4128,.13713E-2,.40467E-3,0
STARLINK-34160,2025-110Z,2026-02-07T15:01:52.561920,15.30205260,.0001173,53.1584,166.1164,75.1340,284.9790,0,U,64119,999,4128,.12662E-2,.37337E-3,0
STARLINK-34151,2025-110AA,2026-02-07T21:04:34.406400,15.30215138,.00013379,53.1604,165.5548,85.4592,274.6561,0,U,64120,999,4131,.10164404E-2,.2988E-3,0
STARLINK-34189,2025-110AB,2026-02-07T14:43:48.248832,15.30213275,.0001152,53.1610,166.7447,91.1367,268.9766,0,U,64121,999,4127,.1329E-2,.39227E-3,0
STARLINK-33991,2025-110AC,2026-02-07T14:55:47.831232,15.30203334,.000142,53.1586,166.0895,85.2417,274.8745,0,U,64122,999,4127,.10704E-2,.31481E-3,0
STARLINK-11727 [DTC],2025-111A,2026-02-07T14:28:12.229248,15.70895909,.0001561,42.9991,155.5269,275.0135,85.0554,0,U,64123,999,4190,.12889E-2,.168733E-2,0
STARLINK-11724 [DTC],2025-111B,2026-02-07T10:39:12.706848,15.70888965,.0001717,42.9994,156.0381,262.9769,97.0904,0,U,64124,999,4188,.21186418E-2,.281387E-2,0
STARLINK-11725 [DTC],2025-111C,2026-02-07T18:39:57.704544,15.70845003,.00030046,42.9993,154.2506,355.0927,4.9911,0,U,64125,999,4193,.23928333E-2,.318735E-2,0
STARLINK-11717 [DTC],2025-111D,2026-02-07T16:00:01.999584,15.70889816,.00014957,42.9999,154.9943,276.5675,144.6685,0,U,64126,999,589,-.10284944E-2,-.130641E-2,0
STARLINK-11721 [DTC],2025-111E,2026-02-07T17:54:02.964960,15.71121335,.00076199,43.0004,153.9934,237.8331,122.1798,0,U,64127,999,4193,.25274132E-2,.341897E-2,0
STARLINK-11722 [DTC],2025-111F,2026-02-07T09:15:17.701920,15.71096439,.00030402,42.9977,156.4604,199.2408,160.8345,0,U,64128,999,4182,.27121201E-2,.367323E-2,0
STARLINK-11679 [DTC],2025-111G,2026-02-07T11:55:28.977024,15.70874181,.00018887,42.9990,155.5708,295.2936,64.7736,0,U,64129,999,4189,.41737347E-2,.574653E-2,0
STARLINK-11735 [DTC],2025-111H,2026-02-07T07:51:23.048640,15.70987082,.00007,42.9968,156.8851,249.7456,110.3336,0,U,64130,999,4171,.20081E-2,.267327E-2,0
STARLINK-11720 [DTC],2025-111J,2026-02-07T15:06:14.633856,15.70922166,.0003125,43.0001,154.8434,302.8315,57.2252,0,U,64131,999,4186,.19384E-2,.257025E-2,0
STARLINK-11718 [DTC],2025-111K,2026-02-07T08:23:16.821600,15.71107161,.00019937,42.9980,157.0653,173.7483,186.3410,0,U,64132,999,4191,.25630466E-2,.34637E-2,0
STARLINK-11716 [DTC],2025-111L,2026-02-07T11:17:24.662112,15.71038954,.00018717,42.9973,156.2506,326.5120,33.5629,0,U,64133,999,4193,.10995557E-2,.144321E-2,0
STARLINK-11714 [DTC],2025-111M,2026-02-07T08:37:04.295136,15.71033617,.00015976,42.9972,156.2448,239.8102,120.2607,0,U,64134,999,4187,.22369335E-2,.299598E-2,0
